ONEWEB-0235             
1 48771U 21045E   25334.61867512  .00000004  00000+0 -24627-4 0  9991
2 48771  87.8985 298.8052 0002337  79.7902 280.3492 13.15548187218278
ONEWEB-0242             
1 48772U 21045F   25334.61234360  .00000039  00000+0  70489-4 0  9995
2 48772  87.8988 298.7993 0002017  84.7578 275.3783 13.15548568218310
ONEWEB-0241             
1 48773U 21045G   25334.59964669  .00000141  00000+0  34000-3 0  9997
2 48773  87.8978 298.8408 0002143  73.0512 287.0853 13.15548299218220
ONEWEB-0243             
1 48774U 21045H   25334.17500862 -.00000161  00000+0 -46153-3 0  9999
2 48774  87.8984 298.9340 0002253  84.9303 275.2084 13.15547438218190
ONEWEB-0222             
1 48775U 21045J   25334.61472150  .00000017  00000+0  10566-4 0  9995
2 48775  87.8988 298.7991 0002015  80.9621 279.1738 13.15549394218293
ONEWEB-0244             
1 48776U 21045K   25334.33663550  .00000093  00000+0  21270-3 0  9998
2 48776  87.8995 298.8410 0002012  82.6180 277.5179 13.15548452218829
ONEWEB-0247             
1 48777U 21045L   25334.33346406  .00000076  00000+0  16801-3 0  9992
2 48777  87.8976 298.9004 0002843  83.9684 276.1770 13.15548084218265
ONEWEB-0245             
1 48778U 21045M   25334.17659472 -.00000116  00000+0 -34276-3 0  9998
2 48778  87.8978 298.8961 0001942  75.6201 284.5145 13.15547866218212
